{
"type": "FeatureCollection",
"name": "supervisor_districts_sample",
"crs": { "type": "name", "properties": { "name": "urn:ogc:def:crs:OGC:1.3:CRS84" } },
"features": [
{ "type": "Feature", "properties": { "OBJECTID": 1, "SUPERVISOR": "Otto Lee", "DISTRICT": 3, "ACRES": 246345.59258605901, "SQ_MILES": 384.91498846565298, "Shape__Area": 10730814013.055237, "Shape__Length": 741109.32671684143 }, "geometry": { "type": "Polygon", "coordinates": [ [ [ -121.866026755082999, 37.484609361563599 ], [ -121.472010516558996, 37.481849645053998 ], [ -121.473363608322003, 37.479004148868199 ], [ -121.476749745532004, 37.4783970122485 ], [ -121.481059222907007, 37.474360616905997 ], [ -121.484583524594996, 37.474210207204898 ], [ -121.484622150508002, 37.470237299097398 ], [ -121.483072243104999, 37.465779502775497 ], [ -121.475619384289004, 37.461762017248297 ], [ -121.475727162460004, 37.457906571330597 ], [ -121.463619422226998, 37.452136299655997 ], [ -121.460738267500005, 37.4395114371343 ], [ -121.461088088636004, 37.437986168606301 ], [ -121.466400060230001, 37.436933937990801 ], [ -121.469431698435997, 37.430564976050398 ], [ -121.472827375788995, 37.427801912302698 ], [ -121.474317537549993, 37.423153574981001 ], [ -121.470305528023999, 37.421670988827898 ], [ -121.470155898691999, 37.4190372241478 ], [ -121.466687827474004, 37.415489264364602 ], [ -121.463683411687001, 37.415905396888299 ], [ -121.458391902509007, 37.408763346593098 ], [ -121.457551717556996, 37.400768673155198 ], [ -121.459001534856, 37.398378946745297 ], [ -121.457670333037996, 37.395722714488898 ], [ -121.452036668093996, 37.3948802160266 ], [ -121.447835208228, 37.390803862144402 ], [ -121.445779327753996, 37.392159679245502 ], [ -121.442202479269994, 37.3911488323212 ], [ -121.440433329374002, 37.393535294926302 ], [ -121.435064676967002, 37.394422088956603 ], [ -121.423613478668003, 37.392764872555503 ], [ -121.419607242054994, 37.3898328657246 ], [ -121.411593847389994, 37.387840326508098 ], [ -121.409158860751006, 37.379546485499702 ], [ -121.412505589426999, 37.375459032172898 ], [ -121.417236671153006, 37.373029713225399 ], [ -121.418841763290999, 37.366450788371601 ], [ -121.421614086963999, 37.365625264047303 ], [ -121.424217732212995, 37.361310593756599 ], [ -121.423640803547002, 37.3572248763003 ], [ -121.420712617798998, 37.354020927281198 ], [ -121.421048319616006, 37.346403402119499 ], [ -121.413836041281002, 37.340055051397997 ], [ -121.409739114426998, 37.333700044606502 ], [ -121.411952491695004, 37.329930273569197 ], [ -121.411535583705003, 37.325116890797098 ], [ -121.409297531017998, 37.322549817047403 ], [ -121.411607776367006, 37.320612380697803 ], [ -121.408079433744007, 37.317523115521801 ], [ -121.407647458637001, 37.314536533331001 ], [ -121.420355583819003, 37.306044796985503 ], [ -121.422928987942001, 37.298637524678902 ], [ -121.426909403563997, 37.299063910806701 ], [ -121.437233778787004, 37.2959674459848 ], [ -121.443763524736994, 37.298873077818897 ], [ -121.448098673633993, 37.297458926413 ], [ -121.449349127407999, 37.292272958670097 ], [ -121.453660774838994, 37.2905860484016 ], [ -121.455753821084002, 37.286775722990299 ], [ -121.458778406321002, 37.287093621191602 ], [ -121.4599359085, 37.284828110752798 ], [ -121.454833926164, 37.279639130692502 ], [ -121.454741849553002, 37.275103701158102 ], [ -121.587038821514994, 37.276106237222798 ], [ -121.597016555717005, 37.274564169869201 ], [ -121.600927023430003, 37.277328169897203 ], [ -121.613241758525007, 37.279455568926899 ], [ -121.618253627578, 37.288716236152098 ], [ -121.620788991436001, 37.291118748787198 ], [ -121.623884243459003, 37.291358863626002 ], [ -121.628600360714998, 37.290186097106002 ], [ -121.629135554163, 37.288193226528598 ], [ -121.626183107638994, 37.286025593761401 ], [ -121.624201659796, 37.279726039361698 ], [ -121.619838995535005, 37.276663618466998 ], [ -121.621840473923001, 37.271293064153603 ], [ -121.615240560393005, 37.2712718079624 ], [ -121.610801686564997, 37.264239256283901 ], [ -121.613831766736993, 37.260569250371603 ], [ -121.615574010051006, 37.261233290255298 ], [ -121.617113580126997, 37.255680396039502 ], [ -121.624445467664003, 37.254914282658497 ], [ -121.623671289697995, 37.252148430306598 ], [ -121.629611588238006, 37.253385443971901 ], [ -121.637443447549998, 37.258570703013703 ], [ -121.645548906749994, 37.261124781722401 ], [ -121.649747637345996, 37.259039641331398 ], [ -121.652195852033003, 37.2641629750633 ], [ -121.659109211745005, 37.2606495650491 ], [ -121.657320813352996, 37.256791603225501 ], [ -121.663617410697995, 37.256469775692402 ], [ -121.667456900876005, 37.259504091666898 ], [ -121.670237268034995, 37.259132056296203 ], [ -121.675774833773005, 37.265288707814598 ], [ -121.674035721348005, 37.259050423549098 ], [ -121.677711535694002, 37.255331847253899 ], [ -121.677380647026993, 37.252075563754097 ], [ -121.683596727956996, 37.249595525379398 ], [ -121.695495823285, 37.2575849801256 ], [ -121.699951633283007, 37.256589483075103 ], [ -121.730737475899005, 37.2647479061269 ], [ -121.744360012412002, 37.272984944133498 ], [ -121.749631038646996, 37.272362438048603 ], [ -121.752624465341, 37.269959620585901 ], [ -121.755527327086995, 37.270449378453499 ], [ -121.757530990245002, 37.268575554219503 ], [ -121.786794424747995, 37.269387279683102 ], [ -121.786964533008003, 37.265867777123603 ], [ -121.783113880216007, 37.261036533946097 ], [ -121.788099038561, 37.257233238283398 ], [ -121.796300682997995, 37.2572034172088 ], [ -121.800553690871993, 37.262665269562198 ], [ -121.809420839126005, 37.285733102465798 ], [ -121.813715600343997, 37.284123892133103 ], [ -121.811648038079994, 37.288923217064003 ], [ -121.816860073851004, 37.288605230495698 ], [ -121.821348079456996, 37.296389883871299 ], [ -121.824654796287007, 37.298445521088503 ], [ -121.810847960711996, 37.307134789557999 ], [ -121.804546068937, 37.301066948622903 ], [ -121.801402067948004, 37.302521949196098 ], [ -121.804869069928003, 37.311968949642299 ], [ -121.808081620633004, 37.311438037865898 ], [ -121.809246591919006, 37.3259330938589 ], [ -121.817451997847002, 37.337824144401402 ], [ -121.805925998998006, 37.341523902634201 ], [ -121.806997390834994, 37.342711804013099 ], [ -121.800372162385997, 37.346294977028002 ], [ -121.792997405669993, 37.341280616813101 ], [ -121.787434020141006, 37.3441778811994 ], [ -121.801201797372002, 37.353209054210303 ], [ -121.801616859904001, 37.355532326488898 ], [ -121.804584245613, 37.355518614136201 ], [ -121.812187637205, 37.360889714143802 ], [ -121.811790900595994, 37.362889682295403 ], [ -121.806767942429005, 37.364560948667901 ], [ -121.804753407955005, 37.367528387959503 ], [ -121.809991156750002, 37.368367503304498 ], [ -121.808462437136001, 37.369097717653503 ], [ -121.809551686568994, 37.370664151047897 ], [ -121.812962885521998, 37.368929022381202 ], [ -121.815559689173, 37.3733889552433 ], [ -121.825500801710007, 37.377766341541502 ], [ -121.826170559516001, 37.376522368974399 ], [ -121.829240743539998, 37.379404051954403 ], [ -121.831387375280002, 37.3779490120003 ], [ -121.834183864756, 37.381378240683198 ], [ -121.842098666861006, 37.3776499482831 ], [ -121.838841297044993, 37.372897361530498 ], [ -121.860776197424002, 37.3580711241123 ], [ -121.869378283141998, 37.366813358538401 ], [ -121.874505751133, 37.363435479459703 ], [ -121.880816662723007, 37.367884060447402 ], [ -121.885904004436, 37.362429279887898 ], [ -121.901819856933997, 37.364181565128 ], [ -121.912666159585001, 37.352918816288899 ], [ -121.922013920083998, 37.346098865884002 ], [ -121.932133808988993, 37.351277317004097 ], [ -121.931827728908999, 37.357417850314199 ], [ -121.941270624959003, 37.366926626618302 ], [ -121.941296524004997, 37.3706524931142 ], [ -121.936059030520994, 37.365834863823402 ], [ -121.938360121433007, 37.372673039992002 ], [ -121.935043536913, 37.372317728477398 ], [ -121.945749828225004, 37.373924217731101 ], [ -121.947656397887002, 37.378226666597897 ], [ -121.940954071812996, 37.378453697174997 ], [ -121.935664281344003, 37.3846149428243 ], [ -121.939546916897001, 37.390875508489898 ], [ -121.941883017416998, 37.4004339291875 ], [ -121.947953704518, 37.401644691599799 ], [ -121.954536445255002, 37.407427107449401 ], [ -121.960157263154997, 37.409733428782303 ], [ -121.969007434580007, 37.418838946854898 ], [ -121.986226680982, 37.412178153511398 ], [ -121.986858308885004, 37.377703684683297 ], [ -122.002171878815005, 37.377487374703698 ], [ -122.004143086840998, 37.376934241325898 ], [ -122.004864908879, 37.373880471530597 ], [ -121.982481560318007, 37.374084988442199 ], [ -121.982475681875997, 37.370605745605097 ], [ -121.977476467458004, 37.370610616422702 ], [ -121.977390257904005, 37.370225135158201 ], [ -121.996435228134004, 37.370366556780603 ], [ -121.995967060835994, 37.360679243653898 ], [ -122.000525262533998, 37.3595336604686 ], [ -122.001586727941003, 37.352407561093699 ], [ -122.000438898913004, 37.353378382160003 ], [ -122.000417045530995, 37.352271806362602 ], [ -122.012555897045999, 37.352500731093798 ], [ -122.031926436017997, 37.367470706706499 ], [ -122.037010110376997, 37.369092192509797 ], [ -122.032034421738999, 37.384315821638303 ], [ -122.043751243952002, 37.386853978005298 ], [ -122.047651873606, 37.386277646337597 ], [ -122.044970523245993, 37.394416154267603 ], [ -122.046792253424996, 37.395012058476603 ], [ -122.044996252936002, 37.399800737971901 ], [ -122.047416350991995, 37.401542994397602 ], [ -122.046948312712004, 37.4028346878615 ], [ -122.036668216552997, 37.400640956092602 ], [ -122.037217526619997, 37.418759569994499 ], [ -122.034670221336995, 37.426321972091998 ], [ -122.043634371609002, 37.427176488357802 ], [ -122.052064069862993, 37.425323474967101 ], [ -122.059459332697003, 37.426477817856103 ], [ -122.059643656714996, 37.463909485579201 ], [ -122.050008596265002, 37.458593571685597 ], [ -122.038039436958996, 37.464043647851398 ], [ -121.997817206739001, 37.466881743647903 ], [ -121.991792170877005, 37.463641469030698 ], [ -121.979176131754997, 37.460579852093304 ], [ -121.961235519640994, 37.463584835009897 ], [ -121.950085755301004, 37.461273669176599 ], [ -121.946816669984997, 37.462907218498003 ], [ -121.947106196429999, 37.467391642004699 ], [ -121.945376065112995, 37.469152670849098 ], [ -121.943897348860006, 37.465420739033497 ], [ -121.932330407642993, 37.460145477089 ], [ -121.933182847493995, 37.455085863904003 ], [ -121.929285751646006, 37.456872934151697 ], [ -121.925273681090005, 37.4542676958214 ], [ -121.911314885405005, 37.462223107853099 ], [ -121.891040873627006, 37.467970188257901 ], [ -121.887915914513997, 37.470945491491797 ], [ -121.880030280586993, 37.471732899412899 ], [ -121.866026755082999, 37.484609361563599 ] ] ] } },
{ "type": "Feature", "properties": { "OBJECTID": 2, "SUPERVISOR": "Margaret Abe-Koga", "DISTRICT": 5, "ACRES": 87477.103778540695, "SQ_MILES": 136.682974671702, "Shape__Area": 3810502640.6166992, "Shape__Length": 334562.59391562961 }, "geometry": { "type": "Polygon", "coordinates": [ [ [ -122.059643656714996, 37.463909485579201 ], [ -122.059459332697003, 37.426477817856103 ], [ -122.052064069862993, 37.425323474967101 ], [ -122.043634371609002, 37.427176488357802 ], [ -122.034670221336995, 37.426321972091998 ], [ -122.037217526619997, 37.418759569994499 ], [ -122.036668216552997, 37.400640956092602 ], [ -122.046948312712004, 37.4028346878615 ], [ -122.047416350991995, 37.401542994397602 ], [ -122.044996252936002, 37.399800737971901 ], [ -122.046792253424996, 37.395012058476603 ], [ -122.044970523245993, 37.394416154267603 ], [ -122.047651873606, 37.386277646337597 ], [ -122.043751243952002, 37.386853978005298 ], [ -122.032034421738999, 37.384315821638303 ], [ -122.037010110376997, 37.369092192509797 ], [ -122.031926436017997, 37.367470706706499 ], [ -122.013370044821002, 37.352757529860398 ], [ -122.000332013111006, 37.3522731011196 ], [ -122.000200101062006, 37.345251162727301 ], [ -122.003032945231993, 37.345269669264901 ], [ -122.002900682930999, 37.341421346346102 ], [ -121.995558647329005, 37.341451377735702 ], [ -121.995698638264997, 37.337805165973499 ], [ -122.002398992983998, 37.337758341002399 ], [ -122.002448192364, 37.334078932268497 ], [ -122.004701691877003, 37.334074558108 ], [ -122.004727473610004, 37.323041365640201 ], [ -122.003382764880996, 37.323007672352801 ], [ -122.002818848839993, 37.320046546948298 ], [ -121.995848802417996, 37.320387643918998 ], [ -121.997532017335004, 37.292603464518002 ], [ -121.993905594834004, 37.2919952290924 ], [ -121.996000563398994, 37.291297874817701 ], [ -121.994793430512004, 37.290417042914001 ], [ -121.996269773532006, 37.288926464600102 ], [ -121.994686912456999, 37.287483577920597 ], [ -121.994439305507996, 37.280533568140598 ], [ -121.989711829127998, 37.280650901494603 ], [ -121.98951288872, 37.276237750947899 ], [ -121.994236157662996, 37.276104464335802 ], [ -121.993654793819005, 37.270355263450298 ], [ -121.990737792437002, 37.269022640675999 ], [ -121.990618149173997, 37.266782471464801 ], [ -121.993353680229006, 37.256645634724599 ], [ -121.992620468767001, 37.253804441407297 ], [ -121.995396226924996, 37.251209658036998 ], [ -121.995250192726004, 37.246652839934498 ], [ -121.998337909051997, 37.242722630325098 ], [ -122.005941239907997, 37.240296537829899 ], [ -122.005688829383999, 37.235751199576796 ], [ -122.010990720912005, 37.231609612808199 ], [ -122.011330667433995, 37.228560377498802 ], [ -122.018310501862999, 37.228251611265001 ], [ -122.018068670256, 37.224495513717599 ], [ -122.031094752273006, 37.2240710102975 ], [ -122.030969898783994, 37.216930199273001 ], [ -122.058421891191003, 37.216996935260198 ], [ -122.058387823331003, 37.212601926369203 ], [ -122.064101805405002, 37.209829223942798 ], [ -122.078947221365993, 37.222941198313201 ], [ -122.084995182035996, 37.222095802883203 ], [ -122.091722290842995, 37.224039134877501 ], [ -122.094247808763996, 37.230035285879403 ], [ -122.104958813601002, 37.234577398249897 ], [ -122.105371121024007, 37.24018376403 ], [ -122.111402996307007, 37.245829185588597 ], [ -122.118428069011998, 37.255813371062096 ], [ -122.123666778786998, 37.259473397610797 ], [ -122.128207688071996, 37.259004249430802 ], [ -122.132684117717005, 37.261020460357798 ], [ -122.135992523298995, 37.265678064022197 ], [ -122.150381339174004, 37.275311278961901 ], [ -122.148914695127004, 37.280967122139501 ], [ -122.151994220806003, 37.283929223739101 ], [ -122.153198770060001, 37.289476107147699 ], [ -122.166846121312005, 37.295385277510803 ], [ -122.162979050687994, 37.3008357019703 ], [ -122.164033420706005, 37.301515193186702 ], [ -122.162541521112999, 37.304700815975501 ], [ -122.166625056917994, 37.305773486050903 ], [ -122.170639787617006, 37.311856564233501 ], [ -122.174985215437999, 37.312851483749697 ], [ -122.182780937567998, 37.3095851375056 ], [ -122.185803911416997, 37.311568971550599 ], [ -122.186675824643004, 37.315505760579299 ], [ -122.193750553886005, 37.317974679074901 ], [ -122.185265629165002, 37.322715381531502 ], [ -122.182074054373999, 37.326851607599799 ], [ -122.174405475409003, 37.325070235454398 ], [ -122.182849804301, 37.333045249907997 ], [ -122.185801469045998, 37.339011730459298 ], [ -122.194944819967006, 37.346791475013802 ], [ -122.196209691293006, 37.351680794149097 ], [ -122.202677883592003, 37.360598596364497 ], [ -122.201575913019994, 37.370703376386302 ], [ -122.190082322302999, 37.387255758099201 ], [ -122.191144091151997, 37.387951215572599 ], [ -122.189936957773995, 37.3944551507726 ], [ -122.191875786161006, 37.396741631769601 ], [ -122.194434753812004, 37.410529577257599 ], [ -122.193278016541001, 37.4139389875182 ], [ -122.187920853465997, 37.414619455163702 ], [ -122.187021199810999, 37.416082693363499 ], [ -122.190295590987006, 37.418660781843499 ], [ -122.187815565204005, 37.420259657866097 ], [ -122.191358016703006, 37.425420280609799 ], [ -122.189292110683994, 37.4275183938217 ], [ -122.190507469752006, 37.431357704326103 ], [ -122.184559869032, 37.434191203964403 ], [ -122.182083458666, 37.439567191482702 ], [ -122.179985108275005, 37.4393096255911 ], [ -122.179841876680996, 37.441047257201902 ], [ -122.175751149353999, 37.441768405470498 ], [ -122.171603639262997, 37.447043352257303 ], [ -122.169008385168993, 37.447154956175901 ], [ -122.165113748333994, 37.453008564557599 ], [ -122.160419021286998, 37.454732538481501 ], [ -122.157179765791, 37.453472495466599 ], [ -122.152613475826001, 37.457744202181601 ], [ -122.147258806256005, 37.456570163872598 ], [ -122.144551764100001, 37.4583389274962 ], [ -122.138569479384998, 37.454717329628203 ], [ -122.132157058404005, 37.454054576226298 ], [ -122.128514691925005, 37.451830165723102 ], [ -122.126976126898001, 37.453637240784502 ], [ -122.123864403490998, 37.4528747206787 ], [ -122.121757363922001, 37.454350831700999 ], [ -122.123870741895999, 37.461106711617099 ], [ -122.117997262946005, 37.465052598855202 ], [ -122.096648527159999, 37.465117384675899 ], [ -122.096619824911997, 37.461900985780503 ], [ -122.080116011008997, 37.478949734548699 ], [ -122.069312245958997, 37.469352431235997 ], [ -122.059643656714996, 37.463909485579201 ] ] ] } },
{ "type": "Feature", "properties": { "OBJECTID": 3, "SUPERVISOR": "Susan Ellenberg", "DISTRICT": 4, "ACRES": 31459.635895152001, "SQ_MILES": 49.155681092552101, "Shape__Area": 1370381739.6171875, "Shape__Length": 221062.39408523223 }, "geometry": { "type": "Polygon", "coordinates": [ [ [ -121.961634245558002, 37.411010574254902 ], [ -121.954536445255002, 37.407427107449401 ], [ -121.947953704518, 37.401644691599799 ], [ -121.941638264353003, 37.399917702853003 ], [ -121.939546916897001, 37.390875508489898 ], [ -121.936011678553001, 37.387030656140801 ], [ -121.935690442756993, 37.384519492673299 ], [ -121.940954071812996, 37.378453697174997 ], [ -121.947656397887002, 37.378226666597897 ], [ -121.945749828225004, 37.373924217731101 ], [ -121.935043536913, 37.372317728477398 ], [ -121.938360121433007, 37.372673039992002 ], [ -121.936059030520994, 37.365834863823402 ], [ -121.941296524004997, 37.3706524931142 ], [ -121.941270624959003, 37.366926626618302 ], [ -121.931827728908999, 37.357417850314199 ], [ -121.932120498866993, 37.349497171211702 ], [ -121.929710125257998, 37.348043379549601 ], [ -121.931971093105005, 37.344467942838101 ], [ -121.924754091254997, 37.342180943300299 ], [ -121.911932088235005, 37.3314989431884 ], [ -121.901261086942995, 37.331975944326302 ], [ -121.900667085513007, 37.324987943936797 ], [ -121.897618084510995, 37.3209589432591 ], [ -121.898090084318994, 37.313538942620603 ], [ -121.882578080027002, 37.297850942694701 ], [ -121.880426079440994, 37.297676942938701 ], [ -121.879956079577994, 37.292726942827997 ], [ -121.883417409122998, 37.285573316550497 ], [ -121.878749363633005, 37.274953226482502 ], [ -121.875853489696993, 37.255627284696203 ], [ -121.894175525831002, 37.250753899638902 ], [ -121.928219039656, 37.2505450904181 ], [ -121.951415973392002, 37.254376692035798 ], [ -121.955478252934995, 37.2563172363379 ], [ -121.953914898533995, 37.258360467076798 ], [ -121.956192454398007, 37.2608261496569 ], [ -121.962022070448, 37.261688740159101 ], [ -121.960950733339999, 37.263037774925301 ], [ -121.962636582390004, 37.2641439730657 ], [ -121.981259997303994, 37.2651493427635 ], [ -121.991955425168001, 37.262999706858999 ], [ -121.990737792437002, 37.269022640675999 ], [ -121.993654793819005, 37.270355263450298 ], [ -121.994236157662996, 37.276104464335802 ], [ -121.98951288872, 37.276237750947899 ], [ -121.989711829127998, 37.280650901494603 ], [ -121.994439305507996, 37.280533568140598 ], [ -121.994686912456999, 37.287483577920597 ], [ -121.996269773532006, 37.288926464600102 ], [ -121.994793430512004, 37.290417042914001 ], [ -121.996000563398994, 37.291297874817701 ], [ -121.993905594834004, 37.2919952290924 ], [ -121.997532017335004, 37.292603464518002 ], [ -121.995848802417996, 37.320387643918998 ], [ -122.002887984435006, 37.320106662533199 ], [ -122.003382764880996, 37.323007672352801 ], [ -122.004727473610004, 37.323041365640201 ], [ -122.004701691877003, 37.334074558108 ], [ -122.002448192364, 37.334078932268497 ], [ -122.002398992983998, 37.337758341002399 ], [ -121.995387988090997, 37.338161558073601 ], [ -121.995558647329005, 37.341451377735702 ], [ -122.002940774902996, 37.342261384284299 ], [ -122.003032945231993, 37.345269669264901 ], [ -122.000200101062006, 37.345251162727301 ], [ -122.000438898913004, 37.353378382160003 ], [ -122.001586727941003, 37.352407561093699 ], [ -122.000525262533998, 37.3595336604686 ], [ -121.995967060835994, 37.360679243653898 ], [ -121.996435228134004, 37.370366556780603 ], [ -121.977390257904005, 37.370225135158201 ], [ -121.982475681875997, 37.370605745605097 ], [ -121.982481560318007, 37.374084988442199 ], [ -122.004864908879, 37.373880471530597 ], [ -122.004143086840998, 37.376934241325898 ], [ -122.002171878815005, 37.377487374703698 ], [ -121.986858308885004, 37.377703684683297 ], [ -121.986226680982, 37.412178153511398 ], [ -121.968049648104, 37.4188849339466 ], [ -121.961634245558002, 37.411010574254902 ] ] ] } },
{ "type": "Feature", "properties": { "OBJECTID": 4, "SUPERVISOR": "Betty Duong", "DISTRICT": 2, "ACRES": 21199.788465541598, "SQ_MILES": 33.124669481706, "Shape__Area": 923462785.56054688, "Shape__Length": 191769.71627736531 }, "geometry": { "type": "Polygon", "coordinates": [ [ [ -121.834183864756, 37.381378240683198 ], [ -121.831387375280002, 37.3779490120003 ], [ -121.829240743539998, 37.379404051954403 ], [ -121.826170559516001, 37.376522368974399 ], [ -121.825500801710007, 37.377766341541502 ], [ -121.815559689173, 37.3733889552433 ], [ -121.812962885521998, 37.368929022381202 ], [ -121.809700105857999, 37.370759132608903 ], [ -121.808462437136001, 37.369097717653503 ], [ -121.809991156750002, 37.368367503304498 ], [ -121.804761542506995, 37.367567209428202 ], [ -121.806767942429005, 37.364560948667901 ], [ -121.811790900595994, 37.362889682295403 ], [ -121.812187637205, 37.360889714143802 ], [ -121.804584245613, 37.355518614136201 ], [ -121.801616859904001, 37.355532326488898 ], [ -121.801201797372002, 37.353209054210303 ], [ -121.787434020141006, 37.3441778811994 ], [ -121.792997405669993, 37.341280616813101 ], [ -121.800372162385997, 37.346294977028002 ], [ -121.806997390834994, 37.342711804013099 ], [ -121.805925998998006, 37.341523902634201 ], [ -121.817451997847002, 37.337824144401402 ], [ -121.809246591919006, 37.3259330938589 ], [ -121.808081620633004, 37.311438037865898 ], [ -121.804869069928003, 37.311968949642299 ], [ -121.801402067948004, 37.302521949196098 ], [ -121.804546068937, 37.301066948622903 ], [ -121.810847960711996, 37.307134789557999 ], [ -121.824654796287007, 37.298445521088503 ], [ -121.821348079456996, 37.296389883871299 ], [ -121.816860073851004, 37.288605230495698 ], [ -121.811648038079994, 37.288923217064003 ], [ -121.813715600343997, 37.284123892133103 ], [ -121.809420839126005, 37.285733102465798 ], [ -121.800553690871993, 37.262665269562198 ], [ -121.796300682997995, 37.2572034172088 ], [ -121.802511508116993, 37.255727191563999 ], [ -121.821965163485999, 37.2674748137565 ], [ -121.837246861468998, 37.279973152203297 ], [ -121.846667577394001, 37.2746782375633 ], [ -121.878836576205998, 37.275255832142101 ], [ -121.883417409122998, 37.285573316550497 ], [ -121.879956079577994, 37.292726942827997 ], [ -121.880426079440994, 37.297676942938701 ], [ -121.882578080027002, 37.297850942694701 ], [ -121.898090084318994, 37.313538942620603 ], [ -121.897618084510995, 37.3209589432591 ], [ -121.900667085513007, 37.324987943936797 ], [ -121.901261086942995, 37.331975944326302 ], [ -121.911932088235005, 37.3314989431884 ], [ -121.924754091254997, 37.342180943300299 ], [ -121.931971093105005, 37.344467942838101 ], [ -121.929710125257998, 37.348043379549601 ], [ -121.932120498866993, 37.349497171211702 ], [ -121.932133808988993, 37.351277317004097 ], [ -121.922013920083998, 37.346098865884002 ], [ -121.912666159585001, 37.352918816288899 ], [ -121.901819856933997, 37.364181565128 ], [ -121.885904004436, 37.362429279887898 ], [ -121.880816662723007, 37.367884060447402 ], [ -121.874505751133, 37.363435479459703 ], [ -121.869378283141998, 37.366813358538401 ], [ -121.860776197424002, 37.3580711241123 ], [ -121.838841297044993, 37.372897361530498 ], [ -121.842098666861006, 37.3776499482831 ], [ -121.834183864756, 37.381378240683198 ] ] ] } },
{ "type": "Feature", "properties": { "OBJECTID": 5, "SUPERVISOR": "Sylvia Arenas", "DISTRICT": 1, "ACRES": 448626.87076356303, "SQ_MILES": 700.97948565900504, "Shape__Area": 19542186490.420795, "Shape__Length": 904865.78798385058 }, "geometry": { "type": "Polygon", "coordinates": [ [ [ -121.628600360714998, 37.290186097106002 ], [ -121.620484732554999, 37.290887007356503 ], [ -121.615156759382998, 37.284877235826798 ], [ -121.613241758525007, 37.279455568926899 ], [ -121.600927023430003, 37.277328169897203 ], [ -121.597016555717005, 37.274564169869201 ], [ -121.587038821514994, 37.276106237222798 ], [ -121.454040078983994, 37.275102118728697 ], [ -121.453191848117001, 37.269791523436297 ], [ -121.455413046754003, 37.2676521375137 ], [ -121.453348260186999, 37.263586756017503 ], [ -121.456054291857996, 37.2608317806218 ], [ -121.453462284989996, 37.255943446556898 ], [ -121.456209240155999, 37.252072979049501 ], [ -121.450003106717006, 37.243835281233402 ], [ -121.444843911036003, 37.240030512261598 ], [ -121.443717488258997, 37.234833795204999 ], [ -121.425305481625998, 37.222641503064203 ], [ -121.425986879497998, 37.217421116457501 ], [ -121.420939396337999, 37.213771699486202 ], [ -121.421842174516996, 37.210339060374103 ], [ -121.419766924860994, 37.202703946828898 ], [ -121.417977511828994, 37.202504291170101 ], [ -121.414194968879997, 37.193868076213697 ], [ -121.415085086938006, 37.188925867925498 ], [ -121.412867816385003, 37.188940789835499 ], [ -121.413303112460994, 37.186120741422798 ], [ -121.409438374334997, 37.183491792578998 ], [ -121.412877399844007, 37.179559870338899 ], [ -121.411761154532996, 37.175773517250903 ], [ -121.415085737686994, 37.174492395222401 ], [ -121.414749235344999, 37.172816871354499 ], [ -121.409586178322996, 37.169877780913097 ], [ -121.409554058539001, 37.162890654831301 ], [ -121.407159828692997, 37.157763711406801 ], [ -121.403298935647001, 37.1563979831095 ], [ -121.402121705734004, 37.152054225405102 ], [ -121.397965158534006, 37.151474829811399 ], [ -121.396408244436998, 37.148689863641501 ], [ -121.394324939393996, 37.149247403890001 ], [ -121.393390254397005, 37.152621108867102 ], [ -121.387738447822997, 37.154750434672899 ], [ -121.384093583934003, 37.154353062055698 ], [ -121.382003022564007, 37.160653695011 ], [ -121.384165940410995, 37.163276249222797 ], [ -121.383116169466007, 37.1657697885218 ], [ -121.384897227750997, 37.168774886840197 ], [ -121.383501709623005, 37.170486706820903 ], [ -121.380061860484005, 37.170123245082102 ], [ -121.364674965947003, 37.185045875844203 ], [ -121.360365923844, 37.186038936760703 ], [ -121.351073889852998, 37.183914562509202 ], [ -121.346143312829994, 37.179513307000697 ], [ -121.345159164307006, 37.176340258308798 ], [ -121.334165136506996, 37.172869888093999 ], [ -121.330139886173995, 37.167262874340402 ], [ -121.314849922028003, 37.169258168683001 ], [ -121.312441799488994, 37.171639617777402 ], [ -121.307418613459006, 37.1682640679361 ], [ -121.298291300358997, 37.167997348787097 ], [ -121.291217538571004, 37.172569770684603 ], [ -121.291275164115007, 37.176821656951198 ], [ -121.286877562312995, 37.181830708310102 ], [ -121.282885472309005, 37.1818259240355 ], [ -121.279532788916001, 37.179448855975103 ], [ -121.279715943919001, 37.1781028132215 ], [ -121.275866791515, 37.1769478310027 ], [ -121.272936494045993, 37.172144599437701 ], [ -121.270105705579994, 37.171250935071299 ], [ -121.263102279278002, 37.161116937722099 ], [ -121.240767069921006, 37.158697611246097 ], [ -121.238808455184, 37.147569934096097 ], [ -121.234874312247001, 37.144126597833903 ], [ -121.233647575267, 37.140417515741099 ], [ -121.227106258429998, 37.137413593185997 ], [ -121.225684832403999, 37.132787465904599 ], [ -121.222362877112005, 37.130914953961103 ], [ -121.223229059616997, 37.129134929832901 ], [ -121.221377277933001, 37.125346255658499 ], [ -121.216761282131003, 37.121691680826302 ], [ -121.220040387441003, 37.1186200065073 ], [ -121.220664685529002, 37.115078731822898 ], [ -121.226750209561999, 37.110393118793702 ], [ -121.225103927006998, 37.107693777459502 ], [ -121.226044915627995, 37.105554668669299 ], [ -121.230838934184007, 37.102795610142202 ], [ -121.228903856727996, 37.096507128847499 ], [ -121.232741302991997, 37.095428466966901 ], [ -121.235248782943003, 37.092718336370503 ], [ -121.241594146040995, 37.091865772269898 ], [ -121.244165555858999, 37.087673225580502 ], [ -121.239863190888002, 37.0851690489554 ], [ -121.238162302465994, 37.086787852432202 ], [ -121.234560615145995, 37.085819482883103 ], [ -121.224737774057004, 37.078845921294899 ], [ -121.222992469741996, 37.074277381405103 ], [ -121.218976585427995, 37.073315631648903 ], [ -121.216080449661007, 37.0689387996186 ], [ -121.209155468491005, 37.067447128636303 ], [ -121.210040987959005, 37.065832405444802 ], [ -121.208413445983993, 37.0602158292468 ], [ -121.211718282864993, 37.056209512184203 ], [ -121.215137934820007, 37.057112329684003 ], [ -121.217921157798003, 37.054762190486699 ], [ -121.222294430247999, 37.0547662324878 ], [ -121.224628422376, 37.052168681991397 ], [ -121.221608642421998, 37.037696226667997 ], [ -121.230383108387002, 37.037251097774799 ], [ -121.241048748474995, 37.030458409347197 ], [ -121.247328200148999, 37.0312962877668 ], [ -121.247375225918006, 37.026367564871698 ], [ -121.245814746074004, 37.023659005645399 ], [ -121.238966703298004, 37.018626039660703 ], [ -121.232910025273, 37.0105353774291 ], [ -121.236875429118996, 37.007658775350201 ], [ -121.234832142634005, 37.0028194431885 ], [ -121.232372542684004, 37.000975996852702 ], [ -121.232123952059993, 36.998145933463199 ], [ -121.240408459855004, 36.996476096571101 ], [ -121.244973033535004, 36.990654472698701 ], [ -121.245885247217004, 36.984589341524902 ], [ -121.238418220832003, 36.972754597404197 ], [ -121.229670265143, 36.967659562703503 ], [ -121.225987597114994, 36.967117855716303 ], [ -121.215263312402001, 36.959707421830302 ], [ -121.418211271500994, 36.959713186136497 ], [ -121.434438785596001, 36.973479917502203 ], [ -121.436003126133997, 36.977379377603903 ], [ -121.448168712024, 36.9839486571489 ], [ -121.449145352716997, 36.9858326443726 ], [ -121.447907041533, 36.987753731138902 ], [ -121.449801634314994, 36.988751178240499 ], [ -121.462864521719993, 36.985662877636003 ], [ -121.465975009155997, 36.982585542459098 ], [ -121.464152996444, 36.978936092044201 ], [ -121.468655279613998, 36.977320042987699 ], [ -121.488403183382005, 36.983177948033102 ], [ -121.501789427941006, 36.971968879809801 ], [ -121.505508683033, 36.964123798651798 ], [ -121.508266701413007, 36.963704587478503 ], [ -121.509591964099002, 36.959770721864302 ], [ -121.512251558811997, 36.959151603907699 ], [ -121.512321226002996, 36.957718386298801 ], [ -121.509989177064, 36.956737442687597 ], [ -121.510096938889006, 36.954191608528298 ], [ -121.512234975417002, 36.952633199087799 ], [ -121.511310561730994, 36.949148942821097 ], [ -121.513723182807993, 36.9450290556873 ], [ -121.538833295901, 36.927413047355799 ], [ -121.540911277787004, 36.925146468539602 ], [ -121.539377625713001, 36.922539088354597 ], [ -121.540493906416003, 36.920384579660897 ], [ -121.553579105123006, 36.915146591694203 ], [ -121.558735106311005, 36.910282471646397 ], [ -121.560511361522998, 36.896452269055096 ], [ -121.571359213142998, 36.897138869962099 ], [ -121.575880541792003, 36.8930512322056 ], [ -121.580990929763004, 36.899192579823598 ], [ -121.583788175509994, 36.899783159978703 ], [ -121.583640467769001, 36.919174013371901 ], [ -121.592660168272005, 36.919234709732898 ], [ -121.592605076783002, 36.926447828261502 ], [ -121.610190172326, 36.926492675718897 ], [ -121.626348617491004, 36.9392492514745 ], [ -121.635357741286995, 36.934360638419598 ], [ -121.635186896801002, 36.930232295327698 ], [ -121.639370336702996, 36.930442065588203 ], [ -121.652738419393998, 36.940329974904301 ], [ -121.653345517109003, 36.943011100060097 ], [ -121.651638077292006, 36.946254597569499 ], [ -121.653535062155996, 36.9499892306631 ], [ -121.658143541845007, 36.949415293393102 ], [ -121.662368553145001, 36.9508515068379 ], [ -121.663449287107994, 36.954214210184603 ], [ -121.662170061995994, 36.957757421187097 ], [ -121.664288742408004, 36.9630501781064 ], [ -121.669492925924999, 36.963163843118402 ], [ -121.679121391140001, 36.967452368824297 ], [ -121.683568507683006, 36.966555942783003 ], [ -121.684294694561004, 36.967818543297199 ], [ -121.690199304223, 36.968314477017699 ], [ -121.694495477809994, 36.971953146591801 ], [ -121.695970625095995, 36.977348908046402 ], [ -121.693592173905998, 36.983567459051301 ], [ -121.694648829456, 36.9863446891965 ], [ -121.703280644960998, 36.986366044409699 ], [ -121.704788650466, 36.987184488603297 ], [ -121.704866044656995, 36.989684895111303 ], [ -121.710581238624002, 36.989513890807302 ], [ -121.709887559839999, 36.992980455827897 ], [ -121.714696339070002, 36.9931416150079 ], [ -121.718064830866993, 36.995736479495299 ], [ -121.735803109131993, 36.990150440684801 ], [ -121.727901051036994, 36.993270840175597 ], [ -121.725815485352996, 36.996537311723202 ], [ -121.727966361279996, 36.998014963731798 ], [ -121.717327790735993, 37.007702561552698 ], [ -121.721561188113995, 37.009384186649299 ], [ -121.721974302641001, 37.007440781806899 ], [ -121.725588395342001, 37.011139560112198 ], [ -121.726740325780995, 37.014948119532697 ], [ -121.730449627320993, 37.013360818600098 ], [ -121.735243436429997, 37.016301199136301 ], [ -121.730270933482998, 37.0235693914899 ], [ -121.739254356453998, 37.027080572489901 ], [ -121.742511918668001, 37.030051001167401 ], [ -121.748784749028999, 37.0369224186758 ], [ -121.755213486916006, 37.048708668526501 ], [ -121.757520884488002, 37.049700147500999 ], [ -121.762208002039003, 37.047888714006902 ], [ -121.765016850463994, 37.049527152338499 ], [ -121.763435552020994, 37.0509868082965 ], [ -121.764439010491003, 37.052441115161102 ], [ -121.775379934843997, 37.0529549819612 ], [ -121.776365902937997, 37.054943803487902 ], [ -121.781473952967005, 37.056630010796603 ], [ -121.786182089598995, 37.062027177235599 ], [ -121.793553711688006, 37.06430730156 ], [ -121.796804487345995, 37.0638046535366 ], [ -121.802204266133003, 37.067863198096198 ], [ -121.809093302311993, 37.068732446315202 ], [ -121.817362644992002, 37.077905539807603 ], [ -121.816564919499001, 37.080284934130702 ], [ -121.818223342335003, 37.083773038755403 ], [ -121.823561575425003, 37.086094464358801 ], [ -121.824169236998003, 37.087826069623603 ], [ -121.830424446658995, 37.0881744716744 ], [ -121.849376413854998, 37.098474345572001 ], [ -121.861725179339004, 37.0994405212098 ], [ -121.861587964541997, 37.104300442787299 ], [ -121.869781702919994, 37.103184102621398 ], [ -121.884038825690993, 37.108196109382497 ], [ -121.887461970434998, 37.104764176053102 ], [ -121.890351559864996, 37.105279433226499 ], [ -121.889784086697006, 37.106582298470201 ], [ -121.894745436386003, 37.108627334799998 ], [ -121.894884626380005, 37.109969483459402 ], [ -121.910394572486993, 37.113305340527702 ], [ -121.928940538339006, 37.123512809056699 ], [ -121.931163887870994, 37.121276259291399 ], [ -121.934712931722999, 37.123943626971197 ], [ -121.962617477370998, 37.132980053108199 ], [ -121.972733448211002, 37.141630437826201 ], [ -121.980744131018994, 37.1422596833836 ], [ -121.987067428451994, 37.144890436117599 ], [ -121.991061815855005, 37.144384794214801 ], [ -122.002060110927999, 37.158268882924602 ], [ -122.009094954472005, 37.159837587404397 ], [ -122.015855175129005, 37.165694092834997 ], [ -122.026107955289007, 37.166962989679199 ], [ -122.025442939192999, 37.169453808129802 ], [ -122.027630659999005, 37.171184237032001 ], [ -122.025611719921997, 37.1734955805683 ], [ -122.027110168923997, 37.174842005503898 ], [ -122.026262166560002, 37.176943540550603 ], [ -122.032985213882, 37.1852383451671 ], [ -122.030867970415997, 37.190210449273302 ], [ -122.040679233240994, 37.195335576370397 ], [ -122.042102967809001, 37.1995739338021 ], [ -122.047422029383, 37.204845507261503 ], [ -122.058387823331003, 37.212601926369203 ], [ -122.058421891191003, 37.216996935260198 ], [ -122.030969898783994, 37.216930199273001 ], [ -122.031094752273006, 37.2240710102975 ], [ -122.018068670256, 37.224495513717599 ], [ -122.018310501862999, 37.228251611265001 ], [ -122.011330667433995, 37.228560377498802 ], [ -122.010990720912005, 37.231609612808199 ], [ -122.005688829383999, 37.235751199576796 ], [ -122.005941239907997, 37.240296537829899 ], [ -121.998337909051997, 37.242722630325098 ], [ -121.995250192726004, 37.246652839934498 ], [ -121.995396226924996, 37.251209658036998 ], [ -121.992620468767001, 37.253804441407297 ], [ -121.991955425168001, 37.262999706858999 ], [ -121.981259997303994, 37.2651493427635 ], [ -121.962636582390004, 37.2641439730657 ], [ -121.960950733339999, 37.263037774925301 ], [ -121.962022070448, 37.261688740159101 ], [ -121.956192454398007, 37.2608261496569 ], [ -121.953914898533995, 37.258360467076798 ], [ -121.955478252934995, 37.2563172363379 ], [ -121.951415973392002, 37.254376692035798 ], [ -121.928219039656, 37.2505450904181 ], [ -121.893037130945999, 37.250866633461499 ], [ -121.875853489696993, 37.255627284696203 ], [ -121.878836576205998, 37.275255832142101 ], [ -121.846667577394001, 37.2746782375633 ], [ -121.837246861468998, 37.279973152203297 ], [ -121.821965163485999, 37.2674748137565 ], [ -121.802511508116993, 37.255727191563999 ], [ -121.785822454506004, 37.258442018455597 ], [ -121.782988540356996, 37.261478020694398 ], [ -121.786964533008003, 37.265867777123603 ], [ -121.786794424747995, 37.269387279683102 ], [ -121.757530990245002, 37.268575554219503 ], [ -121.755527327086995, 37.270449378453499 ], [ -121.752624465341, 37.269959620585901 ], [ -121.749631038646996, 37.272362438048603 ], [ -121.744360012412002, 37.272984944133498 ], [ -121.730737475899005, 37.2647479061269 ], [ -121.699951633283007, 37.256589483075103 ], [ -121.695495823285, 37.2575849801256 ], [ -121.683596727956996, 37.249595525379398 ], [ -121.677380647026993, 37.252075563754097 ], [ -121.677711535694002, 37.255331847253899 ], [ -121.674035721348005, 37.259050423549098 ], [ -121.675774833773005, 37.265288707814598 ], [ -121.670237268034995, 37.259132056296203 ], [ -121.667456900876005, 37.259504091666898 ], [ -121.663617410697995, 37.256469775692402 ], [ -121.657320813352996, 37.256791603225501 ], [ -121.659109211745005, 37.2606495650491 ], [ -121.652195852033003, 37.264162975063499 ], [ -121.649747637345996, 37.259039641331398 ], [ -121.645548906749994, 37.261124781722401 ], [ -121.637443447549998, 37.258570703013703 ], [ -121.629611588238006, 37.253385443971801 ], [ -121.623671289697995, 37.252148430306598 ], [ -121.624445467664003, 37.254914282658497 ], [ -121.617113580126997, 37.255680396039502 ], [ -121.615574010051006, 37.261233290255298 ], [ -121.613831766736993, 37.260569250371603 ], [ -121.610801686564997, 37.264239256283901 ], [ -121.615240560393005, 37.2712718079624 ], [ -121.621795459438005, 37.271221779585602 ], [ -121.619838995535005, 37.276663618466998 ], [ -121.624201659796, 37.279726039361698 ], [ -121.626183107638994, 37.286025593761401 ], [ -121.629110946393993, 37.288117758615002 ], [ -121.628600360714998, 37.290186097106002 ] ], [ [ -121.730918913105, 37.0218448601387 ], [ -121.726891457841006, 37.021964428366601 ], [ -121.730146615948001, 37.023522542712797 ], [ -121.730918913105, 37.0218448601387 ] ] ] } }
]
}
